[{"OBJECT_NAME":"STARLINK-5484","OBJECT_ID":"2023-021A","EPOCH":"2026-03-09T19:21:48.546432","MEAN_MOTION":14.9832984,"ECCENTRICITY":0.0003305,"INCLINATION":70.0004,"RA_OF_ASC_NODE":204.2441,"ARG_OF_PERICENTER":268.9762,"MEAN_ANOMALY":91.1018,"EPHEMERIS_TYPE":0,"CLASSIFICATION_TYPE":"U","NORAD_CAT_ID":55628,"ELEMENT_SET_NO":999,"REV_AT_EPOCH":16831,"BSTAR":0.00021094722,"MEAN_MOTION_DOT":2.425e-5,"MEAN_MOTION_DDOT":0},{"OBJECT_NAME":"FENGYUN 1C DEB","OBJECT_ID":"1999-025DXL","EPOCH":"2026-02-25T04:10:22.321344","MEAN_MOTION":15.11307044,"ECCENTRICITY":0.00591738,"INCLINATION":99.4273,"RA_OF_ASC_NODE":43.0945,"ARG_OF_PERICENTER":165.3437,"MEAN_ANOMALY":194.9519,"EPHEMERIS_TYPE":0,"CLASSIFICATION_TYPE":"U","NORAD_CAT_ID":36283,"ELEMENT_SET_NO":999,"REV_AT_EPOCH":67788,"BSTAR":0.0012995165,"MEAN_MOTION_DOT":0.00022794,"MEAN_MOTION_DDOT":0}]
